HTV-X1                  
1 66174U 25241A   26094.86533519  .00007298  00000+0  24011-3 0  9995
2 66174  51.6361 306.8880 0007340 273.6341  86.3801 15.32538946 24953
SZ-21 MODULE            
1 66515U 25246C   26094.27025469  .00061134  00000+0  47837-3 0  9994
2 66515  41.4750  45.6530 0003225 227.1909 132.8663 15.70682632 22093
SHENZHOU-22             
1 66645U 25272A   26094.30151222  .00040275  00000+0  44965-3 0  9990
2 66645  41.4679  52.1686 0003749 122.2718 237.8485 15.62002278281870
SOYUZ-MS 28             
1 66664U 25275A   26094.84355279  .00009370  00000+0  17936-3 0  9990
2 66664  51.6331 303.0545 0006326 272.5089  87.5175 15.48773610560476
DUPLEX                  
1 66906U 98067XS  26094.57928401  .00036815  00000+0  48606-3 0  9993
2 66906  51.6284 299.7899 0003390 234.7456 125.3219 15.58002490 19168
ISS OBJECT XT           
1 66907U 98067XT  26094.54951221  .00316879  00000+0  15900-2 0  9998
2 66907  51.6224 292.7926 0007185 249.6883 110.3346 15.80264331 19256
ISS OBJECT XU           
1 66908U 98067XU  26094.54446233  .00330086  00000+0  16263-2 0  9990
2 66908  51.6221 292.7537 0007323 249.1942 110.8275 15.80626802 19258
SILVERSAT               
1 66909U 98067XV  26094.78704661  .00565248  00000+0  18876-2 0  9991
2 66909  51.6184 289.8512 0009050 258.4718 101.5271 15.88187528 19315
ISS OBJECT XW           
1 66910U 98067XW  26094.81721721  .00228077  00000+0  12620-2 0  9990
2 66910  51.6195 291.5715 0007449 246.0581 113.9639 15.78347512 19297
ISS OBJECT XX           
1 66911U 98067XX  26094.56725693  .01030350  52428-3  20785-2 0  9997
2 66911  51.6142 289.0850 0011132 263.7440  96.2301 15.98982118 19294
ISS OBJECT XY           
1 66912U 98067XY  26094.80304284  .00143123  00000+0  11708-2 0  9996
2 66912  51.6250 294.5166 0005119 244.3771 115.6697 15.69558582 19247
KNACKSAT-2              
1 67683U 98067XZ  26094.79014270  .00049990  00000+0  75544-3 0  9999
2 67683  51.6331 301.9471 0010721 281.6024  78.3763 15.54148205  8849
